satNo,name,line1,line2,inclination,apogee,raan,argument_of_perigee,eccentricity,mean_motion,hdbscan_labels
58662,TIANMU-1 21,1 58662U 23208C   26027.31768147  .00017065  00000-0  54485-3 0  9994,2 58662  97.4361 145.9061 0008441  99.8463 260.3732 15.32514729115976,97.4361,481.2284944360983,145.9061,99.8463,0.0008441,15.32514729,-1
58663,TIANMU-1 22,1 58663U 23208D   26027.25619075  .00014167  00000-0  51183-3 0  9995,2 58663  97.4367 143.2702 0004979 114.9973 245.1784 15.28568012115789,97.4367,490.64393866037204,143.2702,114.9973,0.0004979,15.28568012,170
58665,MDQUBESAT-2,1 58665U 23185P   26027.28807696  .00102453  00000-0  18217-2 0  9998,2 58665  97.5516 112.1959 0006565  30.0407 330.1219 15.49779151115857,97.5516,428.96983325319087,112.1959,30.0407,0.0006565,15.49779151,434
58668,STARLINK-31113,1 58668U 23211B   26026.09387510  .00003105  00000-0  12231-3 0  9992,2 58668  43.0027 325.5355 0001188 275.0940  84.9776 15.27582659115956,43.0027,490.99324201095385,325.5355,275.094,0.0001188,15.27582659,1224
58669,STARLINK-31128,1 58669U 23211C   26027.09138875  .00057844  00000-0  20962-2 0  9990,2 58669  43.0004 320.1239 0001671 266.1674  93.8986 15.27563263116106,43.0004,491.3827256675558,320.1239,266.1674,0.0001671,15.27563263,910
58670,STARLINK-31083,1 58670U 23211D   26026.80928646 -.00000997  00000-0 -26745-4 0  9999,2 58670  43.0047 321.4496 0000330 285.8877  74.1938 15.27570815116063,43.0047,490.44001942052597,321.4496,285.8877,3.3e-05,15.27570815,1075
58671,STARLINK-30828,1 58671U 23211E   26026.84011130  .00002709  00000-0  10796-3 0  9994,2 58671  43.0003 321.6754 0000816 286.4055  73.6707 15.27569799116066,43.0003,490.776516951384,321.6754,286.4055,8.16e-05,15.27569799,1075
58672,STARLINK-31104,1 58672U 23211F   26027.25001157  .00099084  00000-0  37547-2 0  9993,2 58672  43.0000 318.3967 0001352 234.8388 267.1715 15.25841441  5910,43.0,496.32524638357944,318.3967,234.8388,0.0001352,15.25841441,677
58673,STARLINK-31131,1 58673U 23211G   26025.83376686  .00001111  00000-0  49902-4 0  9992,2 58673  43.0005 316.5068 0000807 267.2827  92.7932 15.27576257117313,43.0005,490.75100257350226,316.5068,267.2827,8.07e-05,15.27576257,677
58674,STARLINK-31124,1 58674U 23211H   26026.88237153 -.00006107  00000-0 -21272-3 0  9995,2 58674  43.0021 321.1378 0001629 252.3159 107.7514 15.27557727116070,43.0021,491.3704883042155,321.1378,252.3159,0.0001629,15.27557727,1076
58675,STARLINK-31126,1 58675U 23211J   26026.86698337 -.00001952  00000-0 -61528-4 0  9991,2 58675  43.0010 321.0123 0001215 239.2842 120.7891 15.27536023116079,43.001,491.15143226805327,321.0123,239.2842,0.0001215,15.27536023,1076
58676,STARLINK-31066,1 58676U 23211K   26026.64537132  .00001004  00000-0  89423-4 0  9993,2 58676  43.0013 103.1432 0001044 265.4378  94.6345 15.02530520115666,43.0013,566.9576480663102,103.1432,265.4378,0.0001044,15.0253052,-1
58677,STARLINK-31058,1 58677U 23211L   26026.81956003  .00000061  00000-0  11778-4 0  9995,2 58677  43.0001 321.5266 0002896 296.4878  63.5676 15.27570949116063,43.0001,492.20020546572374,321.5266,296.4878,0.0002896,15.27570949,1075
58678,STARLINK-31125,1 58678U 23211M   26026.51576071  .00000299  00000-0  20402-4 0  9993,2 58678  42.9990 323.5387 0000795 280.3590  79.7172 15.27566682117187,42.999,490.77144267753886,323.5387,280.359,7.95e-05,15.27566682,782
58679,STARLINK-31110,1 58679U 23211N   26025.90800065  .00013316  00000-0  49242-3 0  9995,2 58679  42.9981 326.7199 0001561 258.5421 101.5255 15.27588090115929,42.9981,491.2328991443822,326.7199,258.5421,0.0001561,15.2758809,-1
58680,STARLINK-31112,1 58680U 23211P   26026.96189842 -.00003506  00000-0 -11803-3 0  9991,2 58680  43.0008 320.8733 0001227 270.2201  89.8510 15.27561912117263,43.0008,491.08213273294456,320.8733,270.2201,0.0001227,15.27561912,1076
58681,STARLINK-31147,1 58681U 23211Q   26026.12727935  .00004075  00000-0  15736-3 0  9990,2 58681  43.0019 325.7856 0001376 275.1587  84.9107 15.27610765115955,43.0019,491.0380626391657,325.7856,275.1587,0.0001376,15.27610765,1224
58682,STARLINK-31144,1 58682U 23211R   26026.93492170 -.00000394  00000-0 -47891-5 0  9991,2 58682  43.0036 320.6650 0001166 260.6106  99.4614 15.27557700116082,43.0036,491.05289315913336,320.665,260.6106,0.0001166,15.275577,-1
58683,STARLINK-31095,1 58683U 23211S   26026.85939257  .00002290  00000-0  92767-4 0  9991,2 58683  43.0025 321.8213 0001323 193.5962 166.4854 15.27560678117336,43.0025,491.1516962436298,321.8213,193.5962,0.0001323,15.27560678,1075
58684,STARLINK-31107,1 58684U 23211T   26026.86583042 -.00000495  00000-0 -84806-5 0  9993,2 58684  43.0024 321.8680 0000603 242.4189 117.6601 15.27554502116065,43.0024,490.6761814121101,321.868,242.4189,6.03e-05,15.27554502,1075
58685,STARLINK-31121,1 58685U 23211U   26026.87338567 -.00000202  00000-0  21684-5 0  9995,2 58685  43.0006 321.0581 0001216 243.0389 117.0338 15.27561082116071,43.0006,491.07707103964594,321.0581,243.0389,0.0001216,15.27561082,1076
58686,STARLINK-31137,1 58686U 23211V   26026.84397730 -.00000955  00000-0 -25187-4 0  9997,2 58686  43.0027 321.7036 0001721 279.1262  80.9395 15.27567285116069,43.0027,491.40498626752475,321.7036,279.1262,0.0001721,15.27567285,1075
58688,STARLINK-31139,1 58688U 23211X   26027.25001157  .00341810  49243-4  12832-2 0  9993,2 58688  42.9801 297.5398 0025287 212.1489 202.3315 15.86532379  6006,42.9801,336.06778676676845,297.5398,212.1489,0.0025287,15.86532379,-1
58689,STARLINK-31106,1 58689U 23211Y   26026.11697665  .00012620  00000-0  46657-3 0  9994,2 58689  43.0046 325.7061 0002286 270.8348  89.2241 15.27632748115951,43.0046,491.5965851325104,325.7061,270.8348,0.0002286,15.27632748,1224
58700,TIANMU-1 15,1 58700U 24004A   26027.26510660  .00010451  00000-0  41908-3 0  9999,2 58700  97.4645 213.5835 0008208 119.7211 240.4845 15.25163778114282,97.4645,503.0682918472225,213.5835,119.7211,0.0008208,15.25163778,269
58701,TIANMU-1 16,1 58701U 24004B   26027.31503034  .00010998  00000-0  44057-3 0  9997,2 58701  97.4586 212.9871 0006584 120.8942 239.2944 15.25195166114292,97.4586,501.8585630192086,212.9871,120.8942,0.0006584,15.25195166,270
58702,TIANMU-1 17,1 58702U 24004C   26027.29837711  .00010072  00000-0  40335-3 0  9995,2 58702  97.4619 213.4037 0005792 120.8883 239.2925 15.25233718114288,97.4619,501.19878662372844,213.4037,120.8883,0.0005792,15.25233718,269
58703,TIANMU-1 18,1 58703U 24004D   26027.28236940  .00010235  00000-0  41028-3 0  9993,2 58703  97.4636 213.5921 0005200 119.1342 241.0417 15.25199559114287,97.4636,500.89478990742845,213.5921,119.1342,0.00052,15.25199559,269
58705,STARLINK-11072,1 58705U 24002A   26026.51669680  .00000144  00000-0  60512-5 0  9998,2 58705  53.1596 121.9126 0001375 115.4378 244.6782 15.69702807119811,53.1596,367.81079320698603,121.9126,115.4378,0.0001375,15.69702807,955
58706,STARLINK-11075,1 58706U 24002B   26026.52159050 -.00006685  00000-0 -50392-4 0  9997,2 58706  53.1567 121.9522 0001397 140.8889 219.2230 15.69695627119810,53.1567,367.8461660697693,121.9522,140.8889,0.0001397,15.69695627,955
58707,STARLINK-11077,1 58707U 24002C   26026.52651985  .00003366  00000-0  32680-4 0  9993,2 58707  53.1581 121.9684 0001564  81.2619 278.8576 15.69676313119816,53.1581,368.0139684107909,121.9684,81.2619,0.0001564,15.69676313,955
58708,STARLINK-11079,1 58708U 24002D   26026.51177441 -.00001712  00000-0 -92139-5 0  9994,2 58708  53.1582 121.8796 0005046 172.7468 187.3623 15.69712345119811,53.1582,370.2569625981012,121.8796,172.7468,0.0005046,15.69712345,955
58709,STARLINK-11076,1 58709U 24002E   26026.63423225 -.00000725  00000-0 -11253-5 0  9993,2 58709  53.1598 121.2255 0001126 117.5345 242.5787 15.69692059119835,53.1598,367.6737804225953,121.2255,117.5345,0.0001126,15.69692059,955
58710,STARLINK-11078,1 58710U 24002F   26026.50197775  .00000430  00000-0  84179-5 0  9997,2 58710  53.1601 121.8207 0001736  64.1466 295.9731 15.69706532119814,53.1601,368.0433693964677,121.8207,64.1466,0.0001736,15.69706532,955
58711,STARLINK-31031,1 58711U 24002G   26027.26702224  .00002987  00000-0  12528-3 0  9999,2 58711  53.1616  62.3264 0001996  76.2800 283.8422 15.26685497115679,53.1616,494.2358951456612,62.3264,76.28,0.0001996,15.26685497,-1
58712,STARLINK-31029,1 58712U 24002H   26027.31844613  .00011690  00000-0  40617-3 0  9996,2 58712  53.1587  61.9306 0001731 127.6108 232.5050 15.30203273115680,53.1587,483.52861040028745,61.9306,127.6108,0.0001731,15.30203273,-1
58713,STARLINK-30973,1 58713U 24002J   26027.32478030  .00003664  00000-0  13585-3 0  9990,2 58713  53.1603  61.9680 0001321  91.0765 269.0387 15.30179818115688,53.1603,483.3176656645909,61.968,91.0765,0.0001321,15.30179818,843
58714,STARLINK-31100,1 58714U 24002K   26026.41353814  .00000315  00000-0  22761-4 0  9999,2 58714  53.1600  66.2304 0001414 130.2121 229.9004 15.30187090115549,53.16,483.35968605648077,66.2304,130.2121,0.0001414,15.3018709,1115
58715,STARLINK-31102,1 58715U 24002L   26027.28690243  .00000688  00000-0  35360-4 0  9998,2 58715  53.1602  62.4345 0001342 104.6843 255.4306 15.30190110115671,53.1602,483.30132314631527,62.4345,104.6843,0.0001342,15.3019011,-1
58716,STARLINK-31098,1 58716U 24002M   26027.26474271 -.00000674  00000-0 -10629-4 0  9996,2 58716  53.1607  62.2972 0001361 119.4551 240.6586 15.30194783115678,53.1607,483.30038982189353,62.2972,119.4551,0.0001361,15.30194783,947
58717,STARLINK-31093,1 58717U 24002N   26027.27213823  .00001934  00000-0  77426-4 0  9998,2 58717  53.1603  62.3634 0001416  96.0076 264.1086 15.30195768115674,53.1603,483.3351418799106,62.3634,96.0076,0.0001416,15.30195768,1046
58718,STARLINK-31097,1 58718U 24002P   26027.26896380  .00002448  00000-0  94782-4 0  9998,2 58718  53.1601  62.3251 0001148 117.4386 242.6732 15.30183026115675,53.1601,483.18952182807124,62.3251,117.4386,0.0001148,15.30183026,946
